{"fetched_at":"2026-03-29T02:12:04Z","count":15717,"tles":[{"name":"KINEIS-1E","line1":"1 60083U 24114E   26086.59644626  .00000317  00000+0  48266-4 0  9993","line2":"2 60083  97.9711 111.0440 0002475  98.8882 261.2610 14.80538337 95313","category":"Other"}]}